*******************************************************************************
JPL/HORIZONS                  55638 (2002 VE95)            2013-Dec-01 19:29:49
Rec #: 55638 (+COV)   Soln.date: 2013-Aug-06_06:00:26    # obs: 190 (1990-2009)
 
FK5/J2000.0 helio. ecliptic osc. elements (au, days, deg., period=Julian yrs): 
 
  EPOCH=  2453709.5 ! 2005-Dec-05.00 (CT)          Residual RMS= .25182        
   EC= .2856712173784799   QR= 27.97663846134654   TP= 2452197.9265051601      
   OM= 199.8708155133963   W=  207.083754206048    IN= 16.35094818156548       
   A= 39.16493237004238    MA= 6.078371928436439   ADIST= 50.35322627873822    
   PER= 245.10619          N= .004021221           ANGMOM= .1031678            
   DAN= 48.23781           DDN= 28.67533           L= 46.0073659               
   B= -7.3640872           MOID= 26.9939003        TP= 2001-Oct-15.4265051601  
 
Asteroid physical parameters (km, seconds, rotational period in hours):        
   GM= n.a.                RAD= n.a.               ROTPER= 6.76                
   H= 5.6                  G= .150                 B-V= n.a.                   
                           ALBEDO= n.a.            STYP= n.a.                  
 
ASTEROID comments: 
1: soln ref.= JPL#7, OCC=2
2: source=ORB
*******************************************************************************
 

 

*******************************************************************************
Ephemeris / WWW_USER Sun Dec  1 19:29:49 2013 Pasadena, USA      / Horizons    
*******************************************************************************
Target body name: 55638 (2002 VE95)               {source: JPL#7}
Center body name: Earth (399)                     {source: DE-0431LE-0431}
Center-site name: San Pedro Martir
*******************************************************************************
Start time      : A.D. 2013-Jan-01 00:00:00.0000 UT      
Stop  time      : A.D. 2014-Dec-31 00:00:00.0000 UT      
Step-size       : 1440 minutes
*******************************************************************************
Target pole/equ : No model available
Target radii    : (unavailable)                                                
Center geodetic : 244.536700,31.0434585,2.8281109 {E-lon(deg),Lat(deg),Alt(km)}
Center cylindric: 244.536700,5471.93108,3271.4810 {E-lon(deg),Dxy(km),Dz(km)}
Center pole/equ : High-precision EOP model        {East-longitude +}
Center radii    : 6378.1 x 6378.1 x 6356.8 km     {Equator, meridian, pole}    
Target primary  : Sun
Vis. interferer : MOON (R_eq= 1737.400) km        {source: DE-0431LE-0431}
Rel. light bend : Sun, EARTH                      {source: DE-0431LE-0431}
Rel. lght bnd GM: 1.3271E+11, 3.9860E+05 km^3/s^2                              
Small-body perts: Yes                             {source: SB431-BIG16}
Atmos refraction: NO (AIRLESS)
RA format       : DEG
Time format     : BOTH
EOP file        : eop.131128.p140219                                           
EOP coverage    : DATA-BASED 1962-JAN-20 TO 2013-NOV-28. PREDICTS-> 2014-FEB-18
Units conversion: 1 au= 149597870.700 km, c= 299792.458 km/s, 1 day= 86400.0 s 
Table cut-offs 1: Elevation (-90.0deg=NO ),Airmass (>38.000=NO), Daylight (NO )
Table cut-offs 2: Solar Elongation (  0.0,180.0=NO ),Local Hour Angle( 0.0=NO )
*******************************************************************************
Initial FK5/J2000.0 heliocentric ecliptic osculating elements (au, days, deg.):
  EPOCH=  2453709.5 ! 2005-Dec-05.00 (CT)          Residual RMS= .25182        
   EC= .2856712173784799   QR= 27.97663846134654   TP= 2452197.9265051601      
   OM= 199.8708155133963   W=  207.083754206048    IN= 16.35094818156548       
Asteroid physical parameters (km, seconds, rotational period in hours):        
   GM= n.a.                RAD= n.a.               ROTPER= 6.76                
   H= 5.6                  G= .150                 B-V= n.a.                   
                           ALBEDO= n.a.            STYP= n.a.                  
************************************************************************************************************
 Date__(UT)__HR:MN Date_________JDUT     R.A._(J2000.0)_DEC. dRA*cosD d(DEC)/dt            delta      deldot
************************************************************************************************************
$$SOE
 2014-Jul-16 00:00 2456854.500000000 *    81.44617   9.29681 5.165223  -0.46087 29.9497101987836 -13.7964149
 2014-Jul-17 00:00 2456855.500000000 *    81.48088   9.29379 5.126693  -0.48084 29.9414045106368 -14.1857439
 2014-Jul-18 00:00 2456856.500000000 *    81.51532   9.29064 5.087052  -0.50074 29.9328753263480 -14.5720521
 2014-Jul-19 00:00 2456857.500000000 *    81.54949   9.28735 5.046279  -0.52056 29.9241245078001 -14.9551422
 2014-Jul-20 00:00 2456858.500000000 *    81.58336   9.28393 5.004361  -0.54029 29.9151540388538 -15.3347922
 2014-Jul-21 00:00 2456859.500000000 *    81.61695   9.28038 4.961292  -0.55993 29.9059660344775 -15.7107719
 2014-Jul-22 00:00 2456860.500000000 *    81.65023   9.27670 4.917072  -0.57945 29.8965627421670 -16.0828533
 2014-Jul-23 00:00 2456861.500000000 *    81.68320   9.27289 4.871705  -0.59887 29.8869465391286 -16.4508153
 2014-Jul-24 00:00 2456862.500000000 *m   81.71585   9.26894 4.825199  -0.61815 29.8771199275423 -16.8144459
 2014-Jul-25 00:00 2456863.500000000 *m   81.74818   9.26487 4.777567  -0.63731 29.8670855290639 -17.1735429
 2014-Jul-26 00:00 2456864.500000000 *m   81.78017   9.26068 4.728822  -0.65633 29.8568460789235 -17.5279147
 2014-Jul-27 00:00 2456865.500000000 *m   81.81183   9.25635 4.678982  -0.67520 29.8464044195905 -17.8773810
 2014-Jul-28 00:00 2456866.500000000 *m   81.84313   9.25190 4.628066  -0.69392 29.8357634939111 -18.2217738
 2014-Jul-29 00:00 2456867.500000000 *m   81.87408   9.24732 4.576095  -0.71247 29.8249263377422 -18.5609383
 2014-Jul-30 00:00 2456868.500000000 *m   81.90467   9.24262 4.523092  -0.73087 29.8138960722565 -18.8947332
 2014-Jul-31 00:00 2456869.500000000 *m   81.93489   9.23779 4.469080  -0.74908 29.8026758961645 -19.2230303
 2014-Aug-01 00:00 2456870.500000000 *m   81.96474   9.23285 4.414086  -0.76712 29.7912690780097 -19.5457150
 2014-Aug-02 00:00 2456871.500000000 *m   81.99420   9.22778 4.358136  -0.78498 29.7796789484334 -19.8626859
 2014-Aug-03 00:00 2456872.500000000 *m   82.02328   9.22259 4.301258  -0.80265 29.7679088919039 -20.1738574
 2014-Aug-04 00:00 2456873.500000000 *m   82.05196   9.21729 4.243482  -0.82013 29.7559623369306 -20.4791624
 2014-Aug-05 00:00 2456874.500000000 *m   82.08024   9.21187 4.184839  -0.83741 29.7438427433760 -20.7785594
 2014-Aug-06 00:00 2456875.500000000 *m   82.10812   9.20633 4.125362  -0.85449 29.7315535853713 -21.0720409
 2014-Aug-07 00:00 2456876.500000000 *m   82.13558   9.20068 4.065082  -0.87137 29.7190983289172 -21.3596426
 2014-Aug-08 00:00 2456877.500000000 *m   82.16263   9.19492 4.004026  -0.88806 29.7064804049962 -21.6414491
 2014-Aug-09 00:00 2456878.500000000 *    82.18925   9.18904 3.942213  -0.90454 29.6937031821225 -21.9175887
 2014-Aug-10 00:00 2456879.500000000 *    82.21545   9.18305 3.879650  -0.92082 29.6807699459072 -22.1882139
 2014-Aug-11 00:00 2456880.500000000 *    82.24121   9.17696 3.816328  -0.93691 29.6676838950629 -22.4534648
 2014-Aug-12 00:00 2456881.500000000 *    82.26654   9.17075 3.752227  -0.95281 29.6544481604413 -22.7134281
 2014-Aug-13 00:00 2456882.500000000 *    82.29143   9.16444 3.687316  -0.96851 29.6410658457393 -22.9681062
 2014-Aug-14 00:00 2456883.500000000 *    82.31587   9.15803 3.621568  -0.98400 29.6275400795546 -23.2174097
 2014-Aug-15 00:00 2456884.500000000 *    82.33985   9.15151 3.554958  -0.99929 29.6138740645719 -23.4611738
 2014-Aug-16 00:00 2456885.500000000 *    82.36338   9.14489 3.487474  -1.01437 29.6000711130785 -23.6991872
 2014-Aug-17 00:00 2456886.500000000 *    82.38644   9.13816 3.419113  -1.02922 29.5861346653709 -23.9312203
 2014-Aug-18 00:00 2456887.500000000 *    82.40903   9.13134 3.349878  -1.04384 29.5720682938331 -24.1570460
 2014-Aug-19 00:00 2456888.500000000 *    82.43114   9.12442 3.279783  -1.05822 29.5578756980865 -24.3764499
 2014-Aug-20 00:00 2456889.500000000 *    82.45277   9.11740 3.208842  -1.07235 29.5435606962077 -24.5892343
 2014-Aug-21 00:00 2456890.500000000 *    82.47391   9.11029 3.137076  -1.08622 29.5291272153045 -24.7952171
 2014-Aug-22 00:00 2456891.500000000 *    82.49456   9.10308 3.064505  -1.09983 29.5145792829953 -24.9942299
 2014-Aug-23 00:00 2456892.500000000 *m   82.51471   9.09579 2.991153  -1.11317 29.4999210200991 -25.1861159
 2014-Aug-24 00:00 2456893.500000000 *m   82.53436   9.08840 2.917046  -1.12623 29.4851566341482 -25.3707293
 2014-Aug-25 00:00 2456894.500000000 *m   82.55350   9.08093 2.842212  -1.13900 29.4702904130760 -25.5479355
 2014-Aug-26 00:00 2456895.500000000 *m   82.57212   9.07337 2.766680  -1.15149 29.4553267184588 -25.7176120
 2014-Aug-27 00:00 2456896.500000000 *m   82.59023   9.06572 2.690482  -1.16368 29.4402699778873 -25.8796506
 2014-Aug-28 00:00 2456897.500000000 *m   82.60781   9.05800 2.613651  -1.17557 29.4251246762975 -26.0339589
 2014-Aug-29 00:00 2456898.500000000 *m   82.62487   9.05019 2.536223  -1.18715 29.4098953462883 -26.1804620
 2014-Aug-30 00:00 2456899.500000000 *m   82.64139   9.04231 2.458233  -1.19843 29.3945865575200 -26.3191042
 2014-Aug-31 00:00 2456900.500000000 *m   82.65739   9.03435 2.379719  -1.20939 29.3792029051682 -26.4498506
 2014-Sep-01 00:00 2456901.500000000 *m   82.67285   9.02632 2.300717  -1.22004 29.3637489971513 -26.5726899
 2014-Sep-02 00:00 2456902.500000000 *m   82.68776   9.01821 2.221267  -1.23037 29.3482294395602 -26.6876378
 2014-Sep-03 00:00 2456903.500000000 *m   82.70214   9.01004 2.141404  -1.24038 29.3326488196154 -26.7947421
 2014-Sep-04 00:00 2456904.500000000 *m   82.71596   9.00180 2.061164  -1.25007 29.3170116858499 -26.8940868
